MALLIGYONG-1            
1 58400U 23179A   24238.89029263  .00008629  00000+0  37765-3 0  9992
2 58400  97.3923 124.5637 0000978  42.6668 317.4644 15.22283723 42321
